[{"OBJECT_NAME":"STARLINK-34225","OBJECT_ID":"2025-129C","EPOCH":"2026-03-09T10:21:52.915680","MEAN_MOTION":14.98334097,"ECCENTRICITY":0.00035263,"INCLINATION":70.0011,"RA_OF_ASC_NODE":75.3047,"ARG_OF_PERICENTER":266.6625,"MEAN_ANOMALY":93.413,"EPHEMERIS_TYPE":0,"CLASSIFICATION_TYPE":"U","NORAD_CAT_ID":64414,"ELEMENT_SET_NO":999,"REV_AT_EPOCH":4124,"BSTAR":0.00014789839,"MEAN_MOTION_DOT":1.672e-5,"MEAN_MOTION_DDOT":0},{"OBJECT_NAME":"CZ-6A DEB","OBJECT_ID":"2022-151XN","EPOCH":"2026-03-09T03:53:00.747744","MEAN_MOTION":14.96908336,"ECCENTRICITY":0.00415985,"INCLINATION":98.5971,"RA_OF_ASC_NODE":139.8978,"ARG_OF_PERICENTER":176.4411,"MEAN_ANOMALY":183.7112,"EPHEMERIS_TYPE":0,"CLASSIFICATION_TYPE":"U","NORAD_CAT_ID":55516,"ELEMENT_SET_NO":999,"REV_AT_EPOCH":17147,"BSTAR":0.005138713,"MEAN_MOTION_DOT":0.00060444,"MEAN_MOTION_DDOT":0}]
